COSMOS 2433 (720)       
1 32275U 07052A   23360.59304769 -.00000073  00000+0  00000+0 0  9999
2 32275  65.9927 346.1661 0005323 263.3576  96.5862  2.13104051125800
COSMOS 2432 (719)       
1 32276U 07052B   23359.37390081 -.00000070  00000+0  00000+0 0  9993
2 32276  66.0076 346.3174 0011902 315.9123 135.4703  2.13103266125805
COSMOS 2434 (721)       
1 32393U 07065A   23360.58357465  .00000080  00000+0  00000+0 0  9991
2 32393  64.3262 222.4620 0004682  73.0575 171.1949  2.13103113124543
COSMOS 2436 (723)       
1 32395U 07065C   23360.39469698  .00000082  00000+0  00000+0 0  9996
2 32395  64.3349 222.5312 0017208   7.8219 226.8975  2.13102757124470
COSMOS 2456 (730)       
1 36111U 09070A   23360.65683639 -.00000035  00000+0  00000+0 0  9995
2 36111  64.5375 101.9148 0002870 296.2967 161.6174  2.13098954109171
COSMOS 2457 (733)       
1 36112U 09070B   23360.44398821 -.00000037  00000+0  00000+0 0  9991
2 36112  64.5216 101.7847 0005548 164.8733 261.4323  2.13101140109173
COSMOS 2460 (732)       
1 36402U 10007C   23359.59832429 -.00000072  00000+0  00000+0 0  9995
2 36402  65.8531 344.8954 0002823 287.0941 200.1914  2.13106233107453
COSMOS 2476 (744)       
1 37867U 11064A   23360.65795003 -.00000033  00000+0  00000+0 0  9997
2 37867  64.8150 103.4849 0023050 233.5577 135.5124  2.13101630 94515
COSMOS 2477 (745)       
1 37868U 11064B   23360.46292093 -.00000035  00000+0  00000+0 0  9990
2 37868  64.8222 103.5622 0020218 233.9982 163.2716  2.13101431 94506
COSMOS 2475 (743)       
1 37869U 11064C   23360.46777524 -.00000035  00000+0  00000+0 0  9998
2 37869  64.8293 103.5753 0024541 250.3425 109.2344  2.13101628 94503
COSMOS 2485 (747)       
1 39155U 13019A   23360.11872854 -.00000037  00000+0  00000+0 0  9996
2 39155  64.9742 104.0508 0023452 229.6709 130.1134  2.13101657 83017
COSMOS 2492 (754)       
1 39620U 14012A   23360.54346989 -.00000074  00000+0  00000+0 0  9990
2 39620  65.7358 344.4661 0015003 314.7020  45.1779  2.13103152 75980
COSMOS 2500 (755)       
1 40001U 14032A   23360.25598544 -.00000074  00000+0  00000+0 0  9991
2 40001  65.6738 344.2944 0007507 225.2259 134.7158  2.13106026 74199
COSMOS 2501 (702K)      
1 40315U 14075A   23359.09962902  .00000089  00000+0  00000+0 0  9994
2 40315  63.6289 221.7681 0018091 204.4985 155.5052  2.13101297 70564
COSMOS 2514 (751)       
1 41330U 16008A   23360.48890346 -.00000075  00000+0  00000+0 0  9993
2 41330  65.4699 343.8396 0011506 225.1272 134.7810  2.13102697 61363
COSMOS 2522 (752)       
1 42939U 17055A   23359.86106648  .00000085  00000+0  00000+0 0  9997
2 42939  64.0895 222.7321 0005566 234.0841 125.9552  2.13101983 48700
COSMOS 2527 (756)       
1 43508U 18053A   23360.75819836 -.00000032  00000+0  00000+0 0  9992
2 43508  65.1353 104.1452 0008812 224.2992 135.6221  2.13102353 43020
COSMOS 2529 (757)       
1 43687U 18086A   23360.38837748  .00000081  00000+0  00000+0 0  9990
2 43687  64.3050 223.1801 0007072 266.5329  93.4774  2.13102041 40028
COSMOS 2534 (758)       
1 44299U 19030A   23360.53117267  .00000080  00000+0  00000+0 0  9993
2 44299  64.3779 223.1123 0009809 292.2676 311.4992  2.13101984 35657
COSMOS 2544 (759)       
1 44850U 19088A   23360.70204953 -.00000032  00000+0  00000+0 0  9995
2 44850  65.1215 103.9877 0013125 251.2736 108.5759  2.13102106 31461
COSMOS 2545 (760)       
1 45358U 20018A   23360.42968197 -.00000076  00000+0  00000+0 0  9998
2 45358  64.8102 343.9943 0011570 254.8141 105.0599  2.13102574 29401
COSMOS 2547 (705K)      
1 46805U 20075A   23360.14902239  .00000084  00000+0  00000+0 0  9991
2 46805  64.6058 222.7149 0005564 237.4865 122.5508  2.13102912 24646
COSMOS 2557 (706K)      
1 52984U 22075A   23360.31217379 -.00000075  00000+0  00000+0 0  9992
2 52984  64.7307 346.1459 0014129 281.1730  78.6731  2.13101953 11456
COSMOS 2559 (707K)      
1 54031U 22130A   23360.25453058 -.00000075  00000+0  00000+0 0  9998
2 54031  64.7021 346.2716 0007532 237.0713 122.8617  2.13101253  9424
COSMOS 2564 (761)       
1 54377U 22161A   23360.44711293  .00000082  00000+0  00000+0 0  9991
2 54377  64.7467 222.7782 0007361 209.5147 150.5346  2.13102167  8372
COSMOS 2569 (703K)      
1 57517U 23114A   23360.46567410 -.00000035  00000+0  00000+0 0  9990
2 57517  64.8456 103.2082 0010120 291.4581  68.4258  2.13104244  3007
